ONEWEB-0328             
1 49197U 21083M   26101.94691612  .00000259  00000+0  67316-3 0  9993
2 49197  87.8998 333.3964 0001680  78.4501 281.6817 13.13468504222208
ONEWEB-0331             
1 49198U 21083N   26102.13476679  .00000023  00000+0  26845-4 0  9992
2 49198  87.9227 348.5811 0001419  85.1450 274.9844 13.18686665221302
ONEWEB-0333             
1 49199U 21083P   26102.09419250  .00000433  00000+0  11516-2 0  9992
2 49199  87.8976 333.3997 0001734  83.6823 276.4504 13.13469104222232
ONEWEB-0334             
1 49200U 21083Q   26102.23412356  .00000090  00000+0  19049-3 0  9990
2 49200  87.9131 287.6165 0002698  84.3369 275.8072 13.20773085228086
ONEWEB-0335             
1 49201U 21083R   26102.08910728  .00000372  00000+0  98492-3 0  9992
2 49201  87.8985 333.3968 0001542  86.0241 274.1064 13.13469138222246
ONEWEB-0336             
1 49202U 21083S   26102.13650510 -.00000186  00000+0 -54303-3 0  9997
2 49202  87.8988 333.3837 0001338  85.1769 274.9513 13.13469405222247
ONEWEB-0337             
1 49203U 21083T   26102.07035494 -.00000059  00000+0 -19734-3 0  9997
2 49203  87.8986 333.4042 0001562  78.6000 281.5304 13.13470134222231
ONEWEB-0338             
1 49204U 21083U   26102.20887012  .00000034  00000+0  52467-4 0  9996
2 49204  87.9129 287.6266 0002089  88.2892 271.8481 13.20772912228108
ONEWEB-0339             
1 49205U 21083V   26102.00277379  .00000134  00000+0  33084-3 0  9998
2 49205  87.8988 333.4086 0001981  76.9539 283.1812 13.13468519222209
ONEWEB-0340             
1 49206U 21083W   26102.12156445  .00000013  00000+0 -21672-6 0  9992
2 49206  87.9223 348.5892 0001687  82.9101 277.2224 13.18683931221268
ONEWEB-0341             
1 49207U 21083X   26102.12816812  .00000027  00000+0  35754-4 0  9992
2 49207  87.9228 348.5954 0001533  63.2950 296.8339 13.18684578221281
ONEWEB-0342             
1 49208U 21083Y   26102.21517961 -.00000771  00000+0 -19285-2 0  9993
2 49208  87.9134 287.6063 0001988  89.7613 270.3748 13.20780716228074
ONEWEB-0343             
1 49209U 21083Z   26102.13642875  .00000018  00000+0  11794-4 0  9999
2 49209  87.9227 348.5899 0001858  64.2769 295.8555 13.18686392221330
ONEWEB-0344             
1 49210U 21083AA  26102.07387831  .00000080  00000+0  18466-3 0  9993
2 49210  87.8978 333.4144 0001531  70.9021 289.2273 13.13469340222212
ONEWEB-0345             
1 49211U 21083AB  26102.06540231 -.00000165  00000+0 -48672-3 0  9996
2 49211  87.8988 333.3870 0001589  72.4029 287.7273 13.13469563222228
ONEWEB-0346             
1 49212U 21083AC  26102.13311464 -.00000003  00000+0 -41574-4 0  9995
2 49212  87.9216 348.5955 0001292 100.0142 260.1136 13.18684879221272
ONEWEB-0348             
1 49213U 21083AD  26102.20571115  .00000035  00000+0  53819-4 0  9993
2 49213  87.9140 287.6120 0001228  97.1896 262.9377 13.20773161228109
ONEWEB-0350             
1 49214U 21083AE  26102.07470792  .00000134  00000+0  33309-3 0  9999
2 49214  87.8990 333.3846 0001428  72.3999 287.7286 13.13473014222257
ONEWEB-0351             
1 49215U 21083AF  26102.27501040 -.00000042  00000+0 -13550-3 0  9999
2 49215  87.9139 287.5965 0002330  72.5771 287.5617 13.20773466228073
ONEWEB-0352             
1 49216U 21083AG  26102.13142099 -.00000223  00000+0 -64663-3 0  9992
2 49216  87.8988 333.3881 0002038  73.9617 286.1736 13.13470297222351
ONEWEB-0354             
1 49217U 21083AH  26101.99738023  .00000102  00000+0  21868-3 0  9998
2 49217  87.9139 287.6507 0001458  89.2645 270.8656 13.20772969228078
ONEWEB-0355             
1 49218U 21083AJ  26102.08416894  .00000369  00000+0  97455-3 0  9999
2 49218  87.8974 333.4053 0001752  75.2343 284.8980 13.13469240222221
ONEWEB-0357             
1 49219U 21083AK  26102.22149274  .00000193  00000+0  44251-3 0  9992
2 49219  87.9140 287.6004 0001832  87.0114 273.1229 13.20773470228101
ONEWEB-0332             
1 49279U 21090A   26101.99614747  .00000113  00000+0  26936-3 0  9993
2 49279  87.8932 302.9217 0002039  89.6483 270.4881 13.14517214218882
ONEWEB-0347             
1 49280U 21090B   26101.98475949  .00000049  00000+0  89763-4 0  9999
2 49280  87.9138 287.6569 0002000  96.3496 263.7866 13.20772840222304
ONEWEB-0349             
1 49281U 21090C   26102.24359985  .00000096  00000+0  20501-3 0  9997
2 49281  87.9138 287.6051 0001745  91.2687 268.8647 13.20772433221122
ONEWEB-0353             
1 49282U 21090D   26102.29269856  .00000026  00000+0  36022-4 0  9999
2 49282  87.8933 302.8565 0001993  90.7412 269.3946 13.14501968218928
ONEWEB-0356             
1 49283U 21090E   26102.24201548  .00000022  00000+0  21975-4 0  9996
2 49283  87.9140 287.5988 0001967 118.2074 241.9258 13.20772362221122
ONEWEB-0358             
1 49284U 21090F   26102.27199208 -.00001071  00000+0 -26650-2 0  9999
2 49284  87.9141 287.5961 0001717  95.4250 264.7080 13.20779395221859
ONEWEB-0359             
1 49285U 21090G   26102.26883909 -.00000032  00000+0 -11122-3 0  9992
2 49285  87.9137 287.5935 0001455  89.8345 270.2955 13.20772942221839
ONEWEB-0360             
1 49286U 21090H   26102.25938943  .00000002  00000+0 -26048-4 0  9991
2 49286  87.9138 287.6018 0001596  88.6620 271.4697 13.20772485221145
ONEWEB-0361             
1 49287U 21090J   26102.24044211 -.00000012  00000+0 -61775-4 0  9995
2 49287  87.9140 287.6034 0001715  97.9900 262.1428 13.20772045221594
ONEWEB-0362             
1 49288U 21090K   26102.29242202 -.00000193  00000+0 -51498-3 0  9991
2 49288  87.9172 318.1191 0001827  77.6201 282.5136 13.19725309218224
ONEWEB-0363             
1 49289U 21090L   26102.25621738  .00000046  00000+0  82102-4 0  9995
2 49289  87.9136 287.6012 0001649 103.0747 257.0571 13.20772993221607
ONEWEB-0364             
1 49290U 21090M   26102.21833553  .00000122  00000+0  26910-3 0  9992
2 49290  87.9131 287.6197 0001717  91.2925 268.8405 13.20772627222735
ONEWEB-0365             
1 49291U 21090N   26102.07445063 -.00000044  00000+0 -14136-3 0  9994
2 49291  87.9180 318.1453 0001873  83.8662 276.2684 13.19723512217703
ONEWEB-0366             
1 49292U 21090P   26102.28952765 -.00000052  00000+0 -17605-3 0  9993
2 49292  87.8925 302.8633 0001678  88.6698 271.4624 13.14501710218908
ONEWEB-0367             
1 49293U 21090Q   26102.25463670  .00000068  00000+0  13513-3 0  9992
2 49293  87.9140 287.6012 0001819  85.8027 274.3314 13.20772869221120
ONEWEB-0368             
1 49294U 21090R   26102.25002315 -.00012525  00000+0 -30870-1 0  9994
2 49294  87.9128 287.6208 0002546 104.5756   1.0785 13.20792940  5253
ONEWEB-0369             
1 49295U 21090S   26102.29716063  .00000077  00000+0  15880-3 0  9994
2 49295  87.9169 318.1154 0001818  86.3626 273.7715 13.19727930217726
ONEWEB-0370             
1 49296U 21090T   26102.26411468 -.00000001  00000+0 -34489-4 0  9999
2 49296  87.9139 287.6002 0001607  83.6598 276.4718 13.20772989221162
ONEWEB-0371             
1 49297U 21090U   26102.00179091  .00000049  00000+0  89861-4 0  9999
2 49297  87.9165 318.1636 0001812  82.0623 278.0716 13.19723757217725
ONEWEB-0372             
1 49298U 21090V   26102.25292040  .00000069  00000+0  13731-3 0  9991
2 49298  87.9138 287.6031 0001842  91.2753 268.8591 13.20773571221133
ONEWEB-0373             
1 49299U 21090W   26101.97685858 -.00000166  00000+0 -43974-3 0  9995
2 49299  87.9132 287.6613 0001690  93.3275 266.8052 13.20769834222281
ONEWEB-0374             
1 49300U 21090X   26102.27684421 -.00000154  00000+0 -44912-3 0  9997
2 49300  87.8931 302.8528 0001597 110.1628 249.9674 13.14502789218904
ONEWEB-0375             
1 49301U 21090Y   26102.26726443  .00000014  00000+0  32680-5 0  9992
2 49301  87.9139 287.5930 0001475 108.9036 251.2257 13.20773608221820
ONEWEB-0376             
1 49302U 21090Z   26102.00022761 -.00000031  00000+0 -10981-3 0  9996
2 49302  87.9176 318.1597 0001929  83.5669 276.5683 13.19724491217727
ONEWEB-0377             
1 49303U 21090AA  26102.25320153 -.00000037  00000+0 -12209-3 0  9991
2 49303  87.9138 287.5973 0001562  89.2213 270.9100 13.20769295221814
ONEWEB-0378             
1 49304U 21090AB  26102.27528898  .00000034  00000+0  50554-4 0  9991
2 49304  87.9135 287.6018 0001715  96.6536 263.4792 13.20772991221083
ONEWEB-0379             
1 49305U 21090AC  26102.27208303 -.00000153  00000+0 -44782-3 0  9997
2 49305  87.8935 302.8644 0001733  93.3461 266.7867 13.14502127218908
ONEWEB-0380             
1 49306U 21090AD  26102.30031671  .00000057  00000+0  10993-3 0  9992
2 49306  87.9167 318.1119 0001495  86.7177 273.4127 13.19727340217734
ONEWEB-0381             
1 49307U 21090AE  26102.24991259  .00000052  00000+0  96200-4 0  9994
2 49307  87.9139 287.6024 0001647 100.1887 259.9432 13.20772417221120
ONEWEB-0382             
1 49308U 21090AF  26102.23728691  .00000192  00000+0  44118-3 0  9997
2 49308  87.9144 287.6007 0001719 102.7586 257.3740 13.20771617221116
ONEWEB-0383             
1 49309U 21090AG  26102.11350029 -.00000156  00000+0 -45638-3 0  9991
2 49309  87.8940 302.8829 0001811  94.0764 266.0573 13.14501550218911
ONEWEB-0384             
1 49310U 21090AH  26102.00041945  .00000059  00000+0  11298-3 0  9990
2 49310  87.9139 287.6910 0001911 107.9887 252.1455 13.20809317221093
ONEWEB-0385             
1 49311U 21090AJ  26102.22938192  .00000159  00000+0  36016-3 0  9990
2 49311  87.9136 287.6067 0001712  98.5992 261.5335 13.20773761221099
ONEWEB-0386             
1 49312U 21090AK  26102.01947491  .00000056  00000+0  10525-3 0  9993
2 49312  87.9147 287.6355 0001798 100.5303 259.6033 13.20773203221089
ONEWEB-0387             
1 49313U 21090AL  26102.23095612  .00000097  00000+0  20700-3 0  9998
2 49313  87.9130 287.6255 0001435  96.0674 264.0623 13.20769688221110
ONEWEB-0388             
1 49314U 21090AM  26102.29557953  .00000072  00000+0  14758-3 0  9995
2 49314  87.9169 318.1102 0001703  90.1311 270.0017 13.19727540217720
